{"type":"FeatureCollection","features":[{"type":"Feature","geometry":{"type":"Polygon","coordinates":[[[76.9092039567018,43.27390835605554,0],[76.91203969861097,43.27121101765011,0],[76.91231668791494,43.27021701344061,0],[76.91305995555602,43.26705243092147,0],[76.91709249021034,43.26797980481822,0],[76.9164699884095,43.26828233321982,0],[76.91621852140656,43.26871659886505,0],[76.91620586184753,43.26971458345826,0],[76.91661424218023,43.27048013670013,0],[76.91675465958397,43.27105042437145,0],[76.91711162626845,43.27170042027574,0],[76.917331496279,43.27197772356839,0],[76.91781978110616,43.27201357991133,0],[76.91789676539744,43.27167628836786,0],[76.91810203668794,43.27141455321167,0],[76.91916795662661,43.27154663936439,0],[76.91902747823706,43.27232420874164,0],[76.91927286459196,43.2727385264612,0],[76.92176644018575,43.2721850110715,0],[76.92219335369046,43.2717662299143,0],[76.92340714102403,43.27202429551418,0],[76.92454317282575,43.27221383991687,0],[76.9246965065112,43.27143854831403,0],[76.9252851067742,43.27154243575308,0],[76.92540585444816,43.271667878767,0],[76.92566916770708,43.27191436137619,0],[76.92559238967117,43.27201989305461,0],[76.92555270493274,43.27220453318564,0],[76.92523241097781,43.27221996330742,0],[76.92519598342345,43.27265845664205,0],[76.92613891609693,43.27316932539628,0],[76.92684663630912,43.27339591099469,0],[76.92722567635839,43.27372772273613,0],[76.92795365370199,43.27376052724296,0],[76.9277533456743,43.27576352118385,0],[76.9284377410776,43.27575571811352,0],[76.9284467947099,43.27530302244018,0],[76.92885772251732,43.27506659676052,0],[76.92997912756952,43.2746929918256,0],[76.93015625832848,43.27438075519652,0],[76.93106880858541,43.2751992211044,0],[76.93044532126835,43.2756082935077,0],[76.93098513259336,43.27688862250886,0],[76.93162010704343,43.27878321123789,0],[76.93240923105162,43.28317557419301,0],[76.93382598232367,43.28297415588005,0],[76.93598796280278,43.28216226853766,0],[76.9368384904556,43.28232783440635,0],[76.93732382056416,43.28096582283878,0],[76.93943398361691,43.28139860579609,0],[76.94036724717307,43.27930093214459,0],[76.94306766855831,43.2798412987034,0],[76.94359484387405,43.27953478582749,0],[76.9434477217807,43.27653890522028,0],[76.94071715935537,43.27628185520665,0],[76.93783997336881,43.27539230564128,0],[76.9353673429427,43.27487064047672,0],[76.93257321681197,43.27468987157341,0],[76.93166881031775,43.27480883049312,0],[76.93110304545846,43.27517857552257,0],[76.9301689647767,43.27434283224628,0],[76.93015380645981,43.27386182437354,0],[76.92904978831791,43.27348812443449,0],[76.92837803632003,43.27223545840665,0],[76.92836962639656,43.27192356529704,0],[76.92789436866892,43.27206124611531,0],[76.92750684411952,43.27155425013781,0],[76.92716098542034,43.27144529294701,0],[76.92641201930513,43.27004709621425,0],[76.92597756980248,43.27002847949932,0],[76.9260551219374,43.26927599497203,0],[76.92491955241006,43.2691497609841,0],[76.92390896753304,43.26999954645203,0],[76.92388984209833,43.27030875156054,0],[76.92284930909524,43.27041624080908,0],[76.9225716280112,43.27065441774801,0],[76.92230512968267,43.27123908029743,0],[76.92219311617988,43.27167074099938,0],[76.92113691848053,43.27151474413365,0],[76.92124738540205,43.27113625803483,0],[76.919582295387,43.27085722330195,0],[76.91943174524403,43.27086667566244,0],[76.91916426050241,43.27101660575445,0],[76.91902708124574,43.27103195109041,0],[76.91810924464347,43.27093290292483,0],[76.91858641537632,43.26831056297235,0],[76.91876609914505,43.26716348729551,0],[76.91904895586072,43.2665995288835,0],[76.92005039322366,43.26612090382898,0],[76.92173120023715,43.265732741951,0],[76.92235644254067,43.26644522004197,0],[76.92260974012393,43.26702519711557,0],[76.92299697022627,43.2675376846386,0],[76.92319008793447,43.2680415455369,0],[76.92353459045422,43.26807308948416,0],[76.92359232897607,43.2675436544292,0],[76.92464930810651,43.26784526578039,0],[76.92481851635992,43.26779604217763,0],[76.92507889233362,43.2671778727112,0],[76.92477580861292,43.2663534836821,0],[76.92380855966334,43.26582919139735,0],[76.92272311170213,43.26554625161497,0],[76.92221323220522,43.26547861247577,0],[76.91866066934357,43.26638815901056,0],[76.91759727559061,43.26672763094253,0],[76.91686552621674,43.26670868582774,0],[76.91697480347185,43.26607866413049,0],[76.91618300050247,43.26603205098824,0],[76.91632666470828,43.26493670498731,0],[76.9171445657156,43.26500013572208,0],[76.91757702997526,43.26202658504876,0],[76.91476508531767,43.26184865840009,0],[76.91488893112827,43.26113255604147,0],[76.91602071740897,43.25785712045428,0],[76.9284800820124,43.25876259164973,0],[76.92831859757881,43.26088431857542,0],[76.92820841295293,43.26187384430053,0],[76.9300724862388,43.26191165776879,0],[76.93021590046435,43.26095196488585,0],[76.92829153460622,43.26085472305957,0],[76.92849206896626,43.25874957017105,0],[76.94428406583478,43.25989537438531,0],[76.94416388603184,43.25860233641615,0],[76.9450791478064,43.25866329984716,0],[76.9451608185425,43.25807651741311,0],[76.94423628677161,43.25799607830715,0],[76.94417900692858,43.25859449720896,0],[76.9442561993215,43.25989356409705,0],[76.91601189691401,43.25783924698761,0],[76.91082277103614,43.25757228262634,0],[76.91242958846291,43.24579679209184,0],[76.91320073715141,43.24578463696061,0],[76.91516148357508,43.23971190191203,0],[76.91399873800307,43.23764967956208,0],[76.91487030852691,43.23655716684294,0],[76.91552902491918,43.2364021097739,0],[76.91596989228763,43.23649784479189,0],[76.91620281174103,43.23665258082087,0],[76.91604882367682,43.23776613204191,0],[76.914508606274,43.23771925837868,0],[76.91460254942376,43.23696375736283,0],[76.91485595071244,43.2365916251528,0],[76.91399130854424,43.23769162173876,0],[76.91521139140313,43.23977960748521,0],[76.91321967808672,43.24572506506571,0],[76.91243213782154,43.24575044810754,0],[76.9108440979105,43.25762101307512,0],[76.91079112239579,43.26149692245937,0],[76.90867763975018,43.26132002161886,0],[76.90807557834309,43.26304487200939,0],[76.90697634133839,43.26292524062232,0],[76.90569165752967,43.26523825874848,0],[76.90398476842634,43.26480120959806,0],[76.90308521045098,43.26706563114866,0],[76.90410239374518,43.26772455540013,0],[76.90438829711206,43.27164540971685,0],[76.9035460765558,43.27339993246844,0],[76.90218340764174,43.27489052096625,0],[76.90172643401205,43.27474636998841,0],[76.89933884054601,43.2772573052666,0],[76.89605887410882,43.27606066202822,0],[76.89320230119064,43.27492594635559,0],[76.89388122994666,43.27409993400555,0],[76.89371030847346,43.27296432622515,0],[76.8930932846845,43.27297281401013,0],[76.89288081920739,43.27181449261744,0],[76.89246286523236,43.27183872310806,0],[76.89261804608911,43.27301790012854,0],[76.89366446621403,43.27300898512027,0],[76.89383345053018,43.27407495756547,0],[76.89312654349007,43.27488079315766,0],[76.8909616911301,43.27412235954399,0],[76.88628607894827,43.27243594050977,0],[76.88731359068974,43.28153236460043,0],[76.88652427258879,43.2816250982867,0],[76.88615294258527,43.28169359673049,0],[76.88581517168132,43.28183967391357,0],[76.88524457718849,43.28201489837401,0],[76.88134707534553,43.27412822460169,0],[76.88139907970849,43.27384177283941,0],[76.88104920516783,43.27054902905132,0],[76.88118853138485,43.26771436737158,0],[76.88007791471802,43.26698370186249,0],[76.88007428196418,43.26489264471358,0],[76.88029141087006,43.26460573491776,0],[76.88038185099767,43.2638686541938,0],[76.8796797110852,43.26378740572582,0],[76.87965038685417,43.26296405211517,0],[76.87947213488486,43.26284803096382,0],[76.8801627155366,43.26184393104515,0],[76.88091080522159,43.26047738480435,0],[76.88134106065593,43.25955522457999,0],[76.88156868766147,43.25899338736546,0],[76.88197681167566,43.25833832112114,0],[76.88280274246551,43.25859795120247,0],[76.88301213837201,43.25858090167746,0],[76.88380799383124,43.25871701194178,0],[76.88470731846053,43.25908956215218,0],[76.88552115990467,43.25948325875726,0],[76.88495105215935,43.26055653652566,0],[76.88580533289883,43.26091368208525,0],[76.88673445860313,43.25932968027216,0],[76.88935491050303,43.26015790794251,0],[76.88891756277559,43.26081509141764,0],[76.89469538336378,43.2628886699885,0],[76.89476004019473,43.26280549983582,0],[76.89728957668775,43.2636913778661,0],[76.89731376155169,43.26384500996288,0],[76.89709272157076,43.26415905197749,0],[76.8965127851245,43.26396445467535,0],[76.89635836031702,43.26420702666545,0],[76.89627463662433,43.26417729132853,0],[76.89587576745423,43.26482879237751,0],[76.8964329252667,43.26503671266375,0],[76.89615724269186,43.26544614189583,0],[76.89591672595509,43.26538615943311,0],[76.89551545593837,43.26598827041651,0],[76.89543371071414,43.2659574822388,0],[76.89513190382313,43.26649572766032,0],[76.89280313705534,43.26568623780903,0],[76.8918142206925,43.265839477475,0],[76.89222515810552,43.26700522385085,0],[76.8930223101339,43.26698029009439,0],[76.89310695539248,43.26803485937905,0],[76.89430673875603,43.26758064126324,0],[76.89520683052288,43.26755812573106,0],[76.89581747463998,43.26675173772524,0],[76.89730097395089,43.26455046322987,0],[76.89856110549506,43.26504067089241,0],[76.89709032598185,43.26720241778082,0],[76.89643365295571,43.26697352106992,0],[76.895890115158,43.26781284010621,0],[76.89632765914594,43.26788986426541,0],[76.89663049855443,43.26796410875234,0],[76.89742810824895,43.26776170602469,0],[76.89743576667254,43.26871983533236,0],[76.8971423389534,43.2687517738791,0],[76.89716166765295,43.26908004911879,0],[76.89754516064222,43.26906321832263,0],[76.8974279720938,43.26733085096846,0],[76.89815992088273,43.26756897026949,0],[76.90042797569346,43.26753374029644,0],[76.90279514716475,43.26741268620655,0],[76.90304411013653,43.26708526416325,0],[76.90401893200986,43.26482189753212,0],[76.90559134623125,43.26523256760425,0],[76.90962233305471,43.26595425011554,0],[76.9116780628967,43.26660575838846,0],[76.91159925607786,43.26837664707418,0],[76.9102802654068,43.26741793167284,0],[76.90998256628646,43.26759247195586,0],[76.91011294844543,43.2678976650525,0],[76.9100035160883,43.26804265849562,0],[76.90979536227552,43.26907061480203,0],[76.90925148290975,43.26908923012934,0],[76.90869212441477,43.26929104623994,0],[76.90787356986456,43.26934413328888,0],[76.90700147480202,43.27056286221081,0],[76.90720666216778,43.27088949227966,0],[76.90682970573329,43.27211576851091,0],[76.90600792987799,43.27262920305624,0],[76.90449011431937,43.27496623582032,0],[76.90403550181333,43.27634694186811,0],[76.90274496784224,43.27849382851007,0],[76.90173106100009,43.28277414238431,0],[76.90063178625093,43.28415664285631,0],[76.89901424049071,43.28462205606991,0],[76.89995857087668,43.28646691645264,0],[76.89955060314135,43.28710005779016,0],[76.89923584574584,43.28809061141578,0],[76.89904452535595,43.28825744089463,0],[76.89954936506528,43.28859060822766,0],[76.89975248312554,43.2884568283619,0],[76.89996100760337,43.28818749410948,0],[76.90043692942048,43.28790826174621,0],[76.90199702835352,43.28830013072372,0],[76.90285897186558,43.28686924474133,0],[76.90299564112165,43.28574973858625,0],[76.90433360940632,43.28302954991359,0],[76.90541035038775,43.27911681363233,0],[76.9143655483314,43.28154813017938,0],[76.91386759961117,43.28282099907656,0],[76.91299760338399,43.28339063302794,0],[76.91238200630922,43.28570689661873,0],[76.91177528810891,43.28667714257419,0],[76.91170569057827,43.28694625384112,0],[76.91136478676998,43.28747079264917,0],[76.91148775886388,43.28760594009754,0],[76.91389332844265,43.287235056332,0],[76.91481468304964,43.28696406309451,0],[76.91481102228332,43.28620495360691,0],[76.91463828275435,43.28588466028079,0],[76.91473794395631,43.28476012642199,0],[76.91452694746175,43.28467522487237,0],[76.91479596067356,43.28361734041953,0],[76.9152343218312,43.28362110129989,0],[76.91702414009109,43.28281678016987,0],[76.91568429711984,43.28193374870941,0],[76.91638758628072,43.28088175664728,0],[76.92038357039702,43.27819551685687,0],[76.92154216556474,43.27787779868926,0],[76.92309743260067,43.28047299393587,0],[76.92273250680486,43.28097181911618,0],[76.92289956900218,43.28138258807055,0],[76.92431742489376,43.2823316647255,0],[76.92477940626998,43.28200989568425,0],[76.92556030503158,43.28264798199043,0],[76.9253199438491,43.28309730089855,0],[76.92521301285305,43.28374781858781,0],[76.92537759922702,43.28386147486999,0],[76.92591905509552,43.28376529564191,0],[76.9261994609666,43.28446811502072,0],[76.92651867703398,43.28443382685854,0],[76.9265546283306,43.28416435352676,0],[76.92725889676655,43.28405933080577,0],[76.92715854685665,43.28322243620817,0],[76.92829211134067,43.28307433056361,0],[76.92846604457297,43.28395024171279,0],[76.92925719267362,43.28383873121882,0],[76.92876181615561,43.2814643401526,0],[76.92892944708427,43.28134629673637,0],[76.92884843943584,43.28103381972412,0],[76.92833766008563,43.2807088477346,0],[76.92817903980216,43.28044690960333,0],[76.9231688084441,43.28048983002473,0],[76.92153814636518,43.27776438240893,0],[76.9203220912172,43.27807766033723,0],[76.91637794030004,43.28086696673835,0],[76.91566293162137,43.28190240921135,0],[76.90544202876362,43.27905298072324,0],[76.90597762584844,43.2768971607488,0],[76.90778440482619,43.27537905629333,0],[76.9092039567018,43.27390835605554,0]]]},"properties":{"name":"Муратбаева 23 общий 1 - 12 все промо","styleUrl":"#msn_ylw-pushpin","fill-opacity":0,"stroke-opacity":1,"stroke":"#ffff00","stroke-width":5,"icon-scale":1.1,"icon-offset":[20,2],"icon-offset-units":["pixels","pixels"],"icon":"http://maps.google.com/mapfiles/kml/pushpin/ylw-pushpin.png"}}]}